[
  {
    "station_id": "120",
    "slug": "96-st",
    "name": "96 St",
    "borough": "Manhattan",
    "routes": [
      "2",
      "3",
      "1"
    ],
    "lat": 40.793919,
    "lon": -73.972323,
    "neighborhood": "Upper West Side",
    "zip_code": "10025"
  },
  {
    "station_id": "121",
    "slug": "86-st",
    "name": "86 St",
    "borough": "Manhattan",
    "routes": [
      "2",
      "1"
    ],
    "lat": 40.788644,
    "lon": -73.976218,
    "neighborhood": "Upper West Side",
    "zip_code": "10024"
  },
  {
    "station_id": "122",
    "slug": "79-st",
    "name": "79 St",
    "borough": "Manhattan",
    "routes": [
      "2",
      "1"
    ],
    "lat": 40.783934,
    "lon": -73.979917,
    "neighborhood": "Upper West Side",
    "zip_code": "10024"
  },
  {
    "station_id": "123",
    "slug": "72-st",
    "name": "72 St",
    "borough": "Manhattan",
    "routes": [
      "2",
      "3",
      "1"
    ],
    "lat": 40.778453,
    "lon": -73.98197,
    "neighborhood": "Upper West Side",
    "zip_code": "10023"
  },
  {
    "station_id": "124",
    "slug": "66-st-lincoln-center",
    "name": "66 St-Lincoln Center",
    "borough": "Manhattan",
    "routes": [
      "2",
      "1"
    ],
    "lat": 40.77344,
    "lon": -73.982209,
    "neighborhood": "Lincoln Square",
    "zip_code": "10023"
  },
  {
    "station_id": "125",
    "slug": "59-st-columbus-circle",
    "name": "59 St-Columbus Circle",
    "borough": "Manhattan",
    "routes": [
      "2",
      "1"
    ],
    "lat": 40.768247,
    "lon": -73.981929,
    "neighborhood": "Hell's Kitchen",
    "zip_code": "10023"
  },
  {
    "station_id": "126",
    "slug": "50-st",
    "name": "50 St",
    "borough": "Manhattan",
    "routes": [
      "2",
      "1"
    ],
    "lat": 40.761728,
    "lon": -73.983849,
    "neighborhood": "Theater District",
    "zip_code": "10019"
  },
  {
    "station_id": "127",
    "slug": "times-sq-42-st",
    "name": "Times Sq-42 St",
    "borough": "Manhattan",
    "routes": [
      "2",
      "3",
      "1"
    ],
    "lat": 40.75529,
    "lon": -73.987495,
    "neighborhood": "Theater District",
    "zip_code": "10018"
  },
  {
    "station_id": "128",
    "slug": "34-st-penn-station",
    "name": "34 St-Penn Station",
    "borough": "Manhattan",
    "routes": [
      "2",
      "3",
      "1"
    ],
    "lat": 40.750373,
    "lon": -73.991057,
    "neighborhood": "Koreatown",
    "zip_code": "10001"
  },
  {
    "station_id": "129",
    "slug": "28-st",
    "name": "28 St",
    "borough": "Manhattan",
    "routes": [
      "2",
      "1"
    ],
    "lat": 40.747215,
    "lon": -73.993365,
    "neighborhood": "Chelsea",
    "zip_code": "10001"
  },
  {
    "station_id": "130",
    "slug": "23-st",
    "name": "23 St",
    "borough": "Manhattan",
    "routes": [
      "2",
      "1"
    ],
    "lat": 40.744081,
    "lon": -73.995657,
    "neighborhood": "Chelsea",
    "zip_code": "10011"
  },
  {
    "station_id": "131",
    "slug": "18-st",
    "name": "18 St",
    "borough": "Manhattan",
    "routes": [
      "2",
      "1"
    ],
    "lat": 40.74104,
    "lon": -73.997871,
    "neighborhood": "Chelsea",
    "zip_code": "10011"
  },
  {
    "station_id": "132",
    "slug": "14-st",
    "name": "14 St",
    "borough": "Manhattan",
    "routes": [
      "2",
      "3",
      "1"
    ],
    "lat": 40.737826,
    "lon": -74.000201,
    "neighborhood": "West Village",
    "zip_code": "10011"
  },
  {
    "station_id": "133",
    "slug": "christopher-st-stonewall",
    "name": "Christopher St-Stonewall",
    "borough": "Manhattan",
    "routes": [
      "2",
      "1"
    ],
    "lat": 40.733422,
    "lon": -74.002906,
    "neighborhood": "West Village",
    "zip_code": "10014"
  },
  {
    "station_id": "134",
    "slug": "houston-st",
    "name": "Houston St",
    "borough": "Manhattan",
    "routes": [
      "2",
      "1"
    ],
    "lat": 40.728251,
    "lon": -74.005367,
    "neighborhood": "Hudson Square",
    "zip_code": "10014"
  },
  {
    "station_id": "135",
    "slug": "canal-st",
    "name": "Canal St",
    "borough": "Manhattan",
    "routes": [
      "2",
      "1"
    ],
    "lat": 40.722854,
    "lon": -74.006277,
    "neighborhood": "Hudson Square",
    "zip_code": "10013"
  },
  {
    "station_id": "136",
    "slug": "franklin-st",
    "name": "Franklin St",
    "borough": "Manhattan",
    "routes": [
      "2",
      "1"
    ],
    "lat": 40.719318,
    "lon": -74.006886,
    "neighborhood": "TriBeCa",
    "zip_code": "10013"
  },
  {
    "station_id": "137",
    "slug": "chambers-st",
    "name": "Chambers St",
    "borough": "Manhattan",
    "routes": [
      "2",
      "3",
      "1"
    ],
    "lat": 40.715478,
    "lon": -74.009266,
    "neighborhood": "TriBeCa",
    "zip_code": "10007"
  },
  {
    "station_id": "201",
    "slug": "wakefield-241-st",
    "name": "Wakefield-241 St",
    "borough": "Bronx",
    "routes": [
      "2"
    ],
    "lat": 40.903125,
    "lon": -73.85062,
    "neighborhood": "Wakefield",
    "zip_code": "10470"
  },
  {
    "station_id": "204",
    "slug": "nereid-av",
    "name": "Nereid Av",
    "borough": "Bronx",
    "routes": [
      "2",
      "5"
    ],
    "lat": 40.898379,
    "lon": -73.854376,
    "neighborhood": "Wakefield",
    "zip_code": "10466"
  },
  {
    "station_id": "205",
    "slug": "233-st",
    "name": "233 St",
    "borough": "Bronx",
    "routes": [
      "2",
      "5"
    ],
    "lat": 40.893193,
    "lon": -73.857473,
    "neighborhood": "Williamsbridge",
    "zip_code": "10466"
  },
  {
    "station_id": "206",
    "slug": "225-st",
    "name": "225 St",
    "borough": "Bronx",
    "routes": [
      "2",
      "5"
    ],
    "lat": 40.888022,
    "lon": -73.860341,
    "neighborhood": "Williamsbridge",
    "zip_code": "10466"
  },
  {
    "station_id": "207",
    "slug": "219-st",
    "name": "219 St",
    "borough": "Bronx",
    "routes": [
      "2",
      "5"
    ],
    "lat": 40.883895,
    "lon": -73.862633,
    "neighborhood": "Williamsbridge",
    "zip_code": "10467"
  },
  {
    "station_id": "208",
    "slug": "gun-hill-rd",
    "name": "Gun Hill Rd",
    "borough": "Bronx",
    "routes": [
      "2",
      "5"
    ],
    "lat": 40.87785,
    "lon": -73.866256,
    "neighborhood": "Williamsbridge",
    "zip_code": "10467"
  },
  {
    "station_id": "209",
    "slug": "burke-av",
    "name": "Burke Av",
    "borough": "Bronx",
    "routes": [
      "2",
      "5"
    ],
    "lat": 40.871356,
    "lon": -73.867164,
    "neighborhood": "Allerton",
    "zip_code": "10467"
  },
  {
    "station_id": "210",
    "slug": "allerton-av",
    "name": "Allerton Av",
    "borough": "Bronx",
    "routes": [
      "2",
      "5"
    ],
    "lat": 40.865462,
    "lon": -73.867352,
    "neighborhood": "Allerton",
    "zip_code": "10467"
  },
  {
    "station_id": "212",
    "slug": "bronx-park-east",
    "name": "Bronx Park East",
    "borough": "Bronx",
    "routes": [
      "2",
      "5"
    ],
    "lat": 40.848828,
    "lon": -73.868457,
    "neighborhood": "Pelham Parkway",
    "zip_code": "10462"
  },
  {
    "station_id": "211",
    "slug": "pelham-pkwy",
    "name": "Pelham Pkwy",
    "borough": "Bronx",
    "routes": [
      "2",
      "5"
    ],
    "lat": 40.857192,
    "lon": -73.867615,
    "neighborhood": "Pelham Parkway",
    "zip_code": "10462"
  },
  {
    "station_id": "213",
    "slug": "e-180-st",
    "name": "E 180 St",
    "borough": "Bronx",
    "routes": [
      "2",
      "5"
    ],
    "lat": 40.841894,
    "lon": -73.873488,
    "neighborhood": "Van Nest",
    "zip_code": "10460"
  },
  {
    "station_id": "214",
    "slug": "west-farms-sq-e-tremont-av",
    "name": "West Farms Sq-E Tremont Av",
    "borough": "Bronx",
    "routes": [
      "2",
      "5"
    ],
    "lat": 40.840295,
    "lon": -73.880049,
    "neighborhood": "East Tremont",
    "zip_code": "10460"
  },
  {
    "station_id": "216",
    "slug": "freeman-st",
    "name": "Freeman St",
    "borough": "Bronx",
    "routes": [
      "2",
      "5"
    ],
    "lat": 40.829993,
    "lon": -73.891865,
    "neighborhood": "Crotona Park East",
    "zip_code": "10459"
  },
  {
    "station_id": "215",
    "slug": "174-st",
    "name": "174 St",
    "borough": "Bronx",
    "routes": [
      "2",
      "5"
    ],
    "lat": 40.837288,
    "lon": -73.887734,
    "neighborhood": "Crotona Park East",
    "zip_code": "10460"
  },
  {
    "station_id": "217",
    "slug": "simpson-st",
    "name": "Simpson St",
    "borough": "Bronx",
    "routes": [
      "2",
      "5"
    ],
    "lat": 40.824073,
    "lon": -73.893064,
    "neighborhood": "Longwood",
    "zip_code": "10459"
  },
  {
    "station_id": "218",
    "slug": "intervale-av",
    "name": "Intervale Av",
    "borough": "Bronx",
    "routes": [
      "2",
      "5"
    ],
    "lat": 40.822181,
    "lon": -73.896736,
    "neighborhood": "Longwood",
    "zip_code": "10459"
  },
  {
    "station_id": "219",
    "slug": "prospect-av",
    "name": "Prospect Av",
    "borough": "Bronx",
    "routes": [
      "2",
      "5"
    ],
    "lat": 40.819585,
    "lon": -73.90177,
    "neighborhood": "Longwood",
    "zip_code": "10455"
  },
  {
    "station_id": "220",
    "slug": "jackson-av",
    "name": "Jackson Av",
    "borough": "Bronx",
    "routes": [
      "2",
      "5"
    ],
    "lat": 40.81649,
    "lon": -73.907807,
    "neighborhood": "Morrisania",
    "zip_code": "10455"
  },
  {
    "station_id": "221",
    "slug": "3-av-149-st",
    "name": "3 Av-149 St",
    "borough": "Bronx",
    "routes": [
      "2",
      "5"
    ],
    "lat": 40.816109,
    "lon": -73.917757,
    "neighborhood": "Mott Haven",
    "zip_code": "10455"
  },
  {
    "station_id": "224",
    "slug": "135-st",
    "name": "135 St",
    "borough": "Manhattan",
    "routes": [
      "2",
      "3"
    ],
    "lat": 40.814229,
    "lon": -73.94077,
    "neighborhood": "Harlem",
    "zip_code": "10030"
  },
  {
    "station_id": "222",
    "slug": "149-st-grand-concourse",
    "name": "149 St-Grand Concourse",
    "borough": "Bronx",
    "routes": [
      "2",
      "5"
    ],
    "lat": 40.81841,
    "lon": -73.926718,
    "neighborhood": "Grand Concourse",
    "zip_code": "10451"
  },
  {
    "station_id": "225",
    "slug": "125-st",
    "name": "125 St",
    "borough": "Manhattan",
    "routes": [
      "2",
      "3"
    ],
    "lat": 40.807754,
    "lon": -73.945495,
    "neighborhood": "Harlem",
    "zip_code": "10027"
  },
  {
    "station_id": "226",
    "slug": "116-st",
    "name": "116 St",
    "borough": "Manhattan",
    "routes": [
      "2",
      "3"
    ],
    "lat": 40.802098,
    "lon": -73.949625,
    "neighborhood": "Harlem",
    "zip_code": "10026"
  },
  {
    "station_id": "228",
    "slug": "park-place",
    "name": "Park Place",
    "borough": "Manhattan",
    "routes": [
      "2",
      "3"
    ],
    "lat": 40.713051,
    "lon": -74.008811,
    "neighborhood": "TriBeCa",
    "zip_code": "10007"
  },
  {
    "station_id": "227",
    "slug": "central-park-north-110-st",
    "name": "Central Park North (110 St)",
    "borough": "Manhattan",
    "routes": [
      "2",
      "3"
    ],
    "lat": 40.799075,
    "lon": -73.951822,
    "neighborhood": "Harlem",
    "zip_code": "10026"
  },
  {
    "station_id": "229",
    "slug": "fulton-st",
    "name": "Fulton St",
    "borough": "Manhattan",
    "routes": [
      "2",
      "3"
    ],
    "lat": 40.709416,
    "lon": -74.006571,
    "neighborhood": "Financial District",
    "zip_code": "10038"
  },
  {
    "station_id": "230",
    "slug": "wall-st",
    "name": "Wall St",
    "borough": "Manhattan",
    "routes": [
      "2",
      "3"
    ],
    "lat": 40.706821,
    "lon": -74.0091,
    "neighborhood": "Financial District",
    "zip_code": "10005"
  },
  {
    "station_id": "231",
    "slug": "clark-st",
    "name": "Clark St",
    "borough": "Brooklyn",
    "routes": [
      "2",
      "3"
    ],
    "lat": 40.697466,
    "lon": -73.993086,
    "neighborhood": "Brooklyn Heights",
    "zip_code": "11201"
  },
  {
    "station_id": "232",
    "slug": "borough-hall",
    "name": "Borough Hall",
    "borough": "Brooklyn",
    "routes": [
      "2",
      "3"
    ],
    "lat": 40.693219,
    "lon": -73.989998,
    "neighborhood": "Downtown Brooklyn",
    "zip_code": "11201"
  },
  {
    "station_id": "233",
    "slug": "hoyt-st",
    "name": "Hoyt St",
    "borough": "Brooklyn",
    "routes": [
      "2",
      "3"
    ],
    "lat": 40.690545,
    "lon": -73.985065,
    "neighborhood": "Downtown Brooklyn",
    "zip_code": "11201"
  },
  {
    "station_id": "234",
    "slug": "nevins-st",
    "name": "Nevins St",
    "borough": "Brooklyn",
    "routes": [
      "2",
      "4",
      "3",
      "5"
    ],
    "lat": 40.688246,
    "lon": -73.980492,
    "neighborhood": "Downtown Brooklyn",
    "zip_code": "11217"
  },
  {
    "station_id": "235",
    "slug": "atlantic-av-barclays-ctr",
    "name": "Atlantic Av-Barclays Ctr",
    "borough": "Brooklyn",
    "routes": [
      "2",
      "4",
      "3",
      "5"
    ],
    "lat": 40.684359,
    "lon": -73.977666,
    "neighborhood": "Fort Greene",
    "zip_code": "11217"
  },
  {
    "station_id": "236",
    "slug": "bergen-st",
    "name": "Bergen St",
    "borough": "Brooklyn",
    "routes": [
      "2",
      "4",
      "3"
    ],
    "lat": 40.680829,
    "lon": -73.975098,
    "neighborhood": "Prospect Heights",
    "zip_code": "11217"
  },
  {
    "station_id": "237",
    "slug": "grand-army-plaza",
    "name": "Grand Army Plaza",
    "borough": "Brooklyn",
    "routes": [
      "2",
      "4",
      "3"
    ],
    "lat": 40.675235,
    "lon": -73.971046,
    "neighborhood": "Park Slope",
    "zip_code": "11238"
  },
  {
    "station_id": "238",
    "slug": "eastern-pkwy-brooklyn-museum",
    "name": "Eastern Pkwy-Brooklyn Museum",
    "borough": "Brooklyn",
    "routes": [
      "2",
      "4",
      "3"
    ],
    "lat": 40.671987,
    "lon": -73.964375,
    "neighborhood": "Prospect Park",
    "zip_code": "11238"
  },
  {
    "station_id": "239",
    "slug": "franklin-av-medgar-evers-college",
    "name": "Franklin Av-Medgar Evers College",
    "borough": "Brooklyn",
    "routes": [
      "2",
      "4",
      "3",
      "5"
    ],
    "lat": 40.670682,
    "lon": -73.958131,
    "neighborhood": "Crown Heights",
    "zip_code": "11225"
  },
  {
    "station_id": "241",
    "slug": "president-st-medgar-evers-college",
    "name": "President St-Medgar Evers College",
    "borough": "Brooklyn",
    "routes": [
      "2",
      "5"
    ],
    "lat": 40.667883,
    "lon": -73.950683,
    "neighborhood": "Crown Heights",
    "zip_code": "11225"
  },
  {
    "station_id": "243",
    "slug": "winthrop-st",
    "name": "Winthrop St",
    "borough": "Brooklyn",
    "routes": [
      "2",
      "5"
    ],
    "lat": 40.656652,
    "lon": -73.9502,
    "neighborhood": "Prospect Lefferts Gardens",
    "zip_code": "11225"
  },
  {
    "station_id": "242",
    "slug": "sterling-st",
    "name": "Sterling St",
    "borough": "Brooklyn",
    "routes": [
      "2",
      "5"
    ],
    "lat": 40.662742,
    "lon": -73.95085,
    "neighborhood": "Prospect Lefferts Gardens",
    "zip_code": "11225"
  },
  {
    "station_id": "244",
    "slug": "church-av",
    "name": "Church Av",
    "borough": "Brooklyn",
    "routes": [
      "2",
      "5"
    ],
    "lat": 40.650843,
    "lon": -73.949575,
    "neighborhood": "Flatbush",
    "zip_code": "11226"
  },
  {
    "station_id": "246",
    "slug": "newkirk-av-little-haiti",
    "name": "Newkirk Av-Little Haiti",
    "borough": "Brooklyn",
    "routes": [
      "2",
      "5"
    ],
    "lat": 40.639967,
    "lon": -73.948411,
    "neighborhood": "Flatbush",
    "zip_code": "11226"
  },
  {
    "station_id": "245",
    "slug": "beverly-rd",
    "name": "Beverly Rd",
    "borough": "Brooklyn",
    "routes": [
      "2",
      "5"
    ],
    "lat": 40.645098,
    "lon": -73.948959,
    "neighborhood": "Flatbush",
    "zip_code": "11226"
  },
  {
    "station_id": "247",
    "slug": "flatbush-av-brooklyn-college",
    "name": "Flatbush Av-Brooklyn College",
    "borough": "Brooklyn",
    "routes": [
      "2",
      "5"
    ],
    "lat": 40.632836,
    "lon": -73.947642,
    "neighborhood": "Flatbush",
    "zip_code": "11210"
  },
  {
    "station_id": "248",
    "slug": "nostrand-av",
    "name": "Nostrand Av",
    "borough": "Brooklyn",
    "routes": [
      "2",
      "4",
      "3",
      "5"
    ],
    "lat": 40.669847,
    "lon": -73.950466,
    "neighborhood": "Crown Heights",
    "zip_code": "11225"
  },
  {
    "station_id": "250",
    "slug": "crown-hts-utica-av",
    "name": "Crown Hts-Utica Av",
    "borough": "Brooklyn",
    "routes": [
      "2",
      "4",
      "3",
      "5"
    ],
    "lat": 40.668897,
    "lon": -73.932942,
    "neighborhood": "Crown Heights",
    "zip_code": "11213"
  },
  {
    "station_id": "249",
    "slug": "kingston-av",
    "name": "Kingston Av",
    "borough": "Brooklyn",
    "routes": [
      "2",
      "4",
      "3",
      "5"
    ],
    "lat": 40.669399,
    "lon": -73.942161,
    "neighborhood": "Crown Heights",
    "zip_code": "11213"
  },
  {
    "station_id": "251",
    "slug": "sutter-av-rutland-rd",
    "name": "Sutter Av-Rutland Rd",
    "borough": "Brooklyn",
    "routes": [
      "2",
      "4",
      "3",
      "5"
    ],
    "lat": 40.664717,
    "lon": -73.92261,
    "neighborhood": "East Flatbush",
    "zip_code": "11212"
  },
  {
    "station_id": "252",
    "slug": "saratoga-av",
    "name": "Saratoga Av",
    "borough": "Brooklyn",
    "routes": [
      "2",
      "4",
      "3",
      "5"
    ],
    "lat": 40.661453,
    "lon": -73.916327,
    "neighborhood": "Brownsville",
    "zip_code": "11212"
  },
  {
    "station_id": "253",
    "slug": "rockaway-av",
    "name": "Rockaway Av",
    "borough": "Brooklyn",
    "routes": [
      "2",
      "4",
      "3",
      "5"
    ],
    "lat": 40.662549,
    "lon": -73.908946,
    "neighborhood": "Brownsville",
    "zip_code": "11212"
  },
  {
    "station_id": "254",
    "slug": "junius-st",
    "name": "Junius St",
    "borough": "Brooklyn",
    "routes": [
      "2",
      "4",
      "3",
      "5"
    ],
    "lat": 40.663515,
    "lon": -73.902447,
    "neighborhood": "Brownsville",
    "zip_code": "11212"
  },
  {
    "station_id": "255",
    "slug": "pennsylvania-av",
    "name": "Pennsylvania Av",
    "borough": "Brooklyn",
    "routes": [
      "2",
      "4",
      "3",
      "5"
    ],
    "lat": 40.664635,
    "lon": -73.894895,
    "neighborhood": "East New York",
    "zip_code": "11207"
  },
  {
    "station_id": "256",
    "slug": "van-siclen-av",
    "name": "Van Siclen Av",
    "borough": "Brooklyn",
    "routes": [
      "2",
      "4",
      "3",
      "5"
    ],
    "lat": 40.665449,
    "lon": -73.889395,
    "neighborhood": "East New York",
    "zip_code": "11207"
  },
  {
    "station_id": "257",
    "slug": "new-lots-av",
    "name": "New Lots Av",
    "borough": "Brooklyn",
    "routes": [
      "2",
      "4",
      "3",
      "5"
    ],
    "lat": 40.666235,
    "lon": -73.884079,
    "neighborhood": "East New York",
    "zip_code": "11207"
  }
]