[
  {
    "station_id": "106",
    "slug": "marble-hill-225-st",
    "name": "Marble Hill-225 St",
    "borough": "Manhattan",
    "routes": [
      "1"
    ],
    "lat": 40.874561,
    "lon": -73.909831,
    "neighborhood": "Marble Hill",
    "zip_code": "10463"
  },
  {
    "station_id": "107",
    "slug": "215-st",
    "name": "215 St",
    "borough": "Manhattan",
    "routes": [
      "1"
    ],
    "lat": 40.869444,
    "lon": -73.915279,
    "neighborhood": "Inwood",
    "zip_code": "10034"
  },
  {
    "station_id": "108",
    "slug": "207-st",
    "name": "207 St",
    "borough": "Manhattan",
    "routes": [
      "1"
    ],
    "lat": 40.864621,
    "lon": -73.918822,
    "neighborhood": "Inwood",
    "zip_code": "10034"
  },
  {
    "station_id": "109",
    "slug": "dyckman-st",
    "name": "Dyckman St",
    "borough": "Manhattan",
    "routes": [
      "1"
    ],
    "lat": 40.860531,
    "lon": -73.925536,
    "neighborhood": "Inwood",
    "zip_code": "10040"
  },
  {
    "station_id": "110",
    "slug": "191-st",
    "name": "191 St",
    "borough": "Manhattan",
    "routes": [
      "1"
    ],
    "lat": 40.855225,
    "lon": -73.929412,
    "neighborhood": "Washington Heights",
    "zip_code": "10040"
  },
  {
    "station_id": "111",
    "slug": "181-st",
    "name": "181 St",
    "borough": "Manhattan",
    "routes": [
      "1"
    ],
    "lat": 40.849505,
    "lon": -73.933596,
    "neighborhood": "Washington Heights",
    "zip_code": "10033"
  },
  {
    "station_id": "112",
    "slug": "168-st-washington-hts",
    "name": "168 St-Washington Hts",
    "borough": "Manhattan",
    "routes": [
      "1"
    ],
    "lat": 40.840556,
    "lon": -73.940133,
    "neighborhood": "Washington Heights",
    "zip_code": "10032"
  },
  {
    "station_id": "113",
    "slug": "157-st",
    "name": "157 St",
    "borough": "Manhattan",
    "routes": [
      "1"
    ],
    "lat": 40.834041,
    "lon": -73.94489,
    "neighborhood": "Washington Heights",
    "zip_code": "10032"
  },
  {
    "station_id": "114",
    "slug": "145-st",
    "name": "145 St",
    "borough": "Manhattan",
    "routes": [
      "1"
    ],
    "lat": 40.826551,
    "lon": -73.95036,
    "neighborhood": "Hamilton Heights",
    "zip_code": "10031"
  },
  {
    "station_id": "115",
    "slug": "137-st-city-college",
    "name": "137 St-City College",
    "borough": "Manhattan",
    "routes": [
      "1"
    ],
    "lat": 40.822008,
    "lon": -73.953676,
    "neighborhood": "Hamilton Heights",
    "zip_code": "10031"
  },
  {
    "station_id": "116",
    "slug": "125-st",
    "name": "125 St",
    "borough": "Manhattan",
    "routes": [
      "1"
    ],
    "lat": 40.815581,
    "lon": -73.958372,
    "neighborhood": "Morningside Heights",
    "zip_code": "10027"
  },
  {
    "station_id": "117",
    "slug": "116-st-columbia-university",
    "name": "116 St-Columbia University",
    "borough": "Manhattan",
    "routes": [
      "1"
    ],
    "lat": 40.807722,
    "lon": -73.96411,
    "neighborhood": "Morningside Heights",
    "zip_code": "10025"
  },
  {
    "station_id": "118",
    "slug": "cathedral-pkwy-110-st",
    "name": "Cathedral Pkwy (110 St)",
    "borough": "Manhattan",
    "routes": [
      "1"
    ],
    "lat": 40.803967,
    "lon": -73.966847,
    "neighborhood": "Upper West Side",
    "zip_code": "10025"
  },
  {
    "station_id": "119",
    "slug": "103-st",
    "name": "103 St",
    "borough": "Manhattan",
    "routes": [
      "1"
    ],
    "lat": 40.799446,
    "lon": -73.968379,
    "neighborhood": "Upper West Side",
    "zip_code": "10025"
  },
  {
    "station_id": "120",
    "slug": "96-st",
    "name": "96 St",
    "borough": "Manhattan",
    "routes": [
      "2",
      "3",
      "1"
    ],
    "lat": 40.793919,
    "lon": -73.972323,
    "neighborhood": "Upper West Side",
    "zip_code": "10025"
  },
  {
    "station_id": "121",
    "slug": "86-st",
    "name": "86 St",
    "borough": "Manhattan",
    "routes": [
      "2",
      "1"
    ],
    "lat": 40.788644,
    "lon": -73.976218,
    "neighborhood": "Upper West Side",
    "zip_code": "10024"
  },
  {
    "station_id": "122",
    "slug": "79-st",
    "name": "79 St",
    "borough": "Manhattan",
    "routes": [
      "2",
      "1"
    ],
    "lat": 40.783934,
    "lon": -73.979917,
    "neighborhood": "Upper West Side",
    "zip_code": "10024"
  },
  {
    "station_id": "123",
    "slug": "72-st",
    "name": "72 St",
    "borough": "Manhattan",
    "routes": [
      "2",
      "3",
      "1"
    ],
    "lat": 40.778453,
    "lon": -73.98197,
    "neighborhood": "Upper West Side",
    "zip_code": "10023"
  },
  {
    "station_id": "124",
    "slug": "66-st-lincoln-center",
    "name": "66 St-Lincoln Center",
    "borough": "Manhattan",
    "routes": [
      "2",
      "1"
    ],
    "lat": 40.77344,
    "lon": -73.982209,
    "neighborhood": "Lincoln Square",
    "zip_code": "10023"
  },
  {
    "station_id": "125",
    "slug": "59-st-columbus-circle",
    "name": "59 St-Columbus Circle",
    "borough": "Manhattan",
    "routes": [
      "2",
      "1"
    ],
    "lat": 40.768247,
    "lon": -73.981929,
    "neighborhood": "Hell's Kitchen",
    "zip_code": "10023"
  },
  {
    "station_id": "126",
    "slug": "50-st",
    "name": "50 St",
    "borough": "Manhattan",
    "routes": [
      "2",
      "1"
    ],
    "lat": 40.761728,
    "lon": -73.983849,
    "neighborhood": "Theater District",
    "zip_code": "10019"
  },
  {
    "station_id": "127",
    "slug": "times-sq-42-st",
    "name": "Times Sq-42 St",
    "borough": "Manhattan",
    "routes": [
      "2",
      "3",
      "1"
    ],
    "lat": 40.75529,
    "lon": -73.987495,
    "neighborhood": "Theater District",
    "zip_code": "10018"
  },
  {
    "station_id": "128",
    "slug": "34-st-penn-station",
    "name": "34 St-Penn Station",
    "borough": "Manhattan",
    "routes": [
      "2",
      "3",
      "1"
    ],
    "lat": 40.750373,
    "lon": -73.991057,
    "neighborhood": "Koreatown",
    "zip_code": "10001"
  },
  {
    "station_id": "129",
    "slug": "28-st",
    "name": "28 St",
    "borough": "Manhattan",
    "routes": [
      "2",
      "1"
    ],
    "lat": 40.747215,
    "lon": -73.993365,
    "neighborhood": "Chelsea",
    "zip_code": "10001"
  },
  {
    "station_id": "130",
    "slug": "23-st",
    "name": "23 St",
    "borough": "Manhattan",
    "routes": [
      "2",
      "1"
    ],
    "lat": 40.744081,
    "lon": -73.995657,
    "neighborhood": "Chelsea",
    "zip_code": "10011"
  },
  {
    "station_id": "131",
    "slug": "18-st",
    "name": "18 St",
    "borough": "Manhattan",
    "routes": [
      "2",
      "1"
    ],
    "lat": 40.74104,
    "lon": -73.997871,
    "neighborhood": "Chelsea",
    "zip_code": "10011"
  },
  {
    "station_id": "132",
    "slug": "14-st",
    "name": "14 St",
    "borough": "Manhattan",
    "routes": [
      "2",
      "3",
      "1"
    ],
    "lat": 40.737826,
    "lon": -74.000201,
    "neighborhood": "West Village",
    "zip_code": "10011"
  },
  {
    "station_id": "133",
    "slug": "christopher-st-stonewall",
    "name": "Christopher St-Stonewall",
    "borough": "Manhattan",
    "routes": [
      "2",
      "1"
    ],
    "lat": 40.733422,
    "lon": -74.002906,
    "neighborhood": "West Village",
    "zip_code": "10014"
  },
  {
    "station_id": "134",
    "slug": "houston-st",
    "name": "Houston St",
    "borough": "Manhattan",
    "routes": [
      "2",
      "1"
    ],
    "lat": 40.728251,
    "lon": -74.005367,
    "neighborhood": "Hudson Square",
    "zip_code": "10014"
  },
  {
    "station_id": "135",
    "slug": "canal-st",
    "name": "Canal St",
    "borough": "Manhattan",
    "routes": [
      "2",
      "1"
    ],
    "lat": 40.722854,
    "lon": -74.006277,
    "neighborhood": "Hudson Square",
    "zip_code": "10013"
  },
  {
    "station_id": "136",
    "slug": "franklin-st",
    "name": "Franklin St",
    "borough": "Manhattan",
    "routes": [
      "2",
      "1"
    ],
    "lat": 40.719318,
    "lon": -74.006886,
    "neighborhood": "TriBeCa",
    "zip_code": "10013"
  },
  {
    "station_id": "137",
    "slug": "chambers-st",
    "name": "Chambers St",
    "borough": "Manhattan",
    "routes": [
      "2",
      "3",
      "1"
    ],
    "lat": 40.715478,
    "lon": -74.009266,
    "neighborhood": "TriBeCa",
    "zip_code": "10007"
  },
  {
    "station_id": "138",
    "slug": "wtc-cortlandt",
    "name": "WTC Cortlandt",
    "borough": "Manhattan",
    "routes": [
      "1"
    ],
    "lat": 40.711835,
    "lon": -74.012188,
    "neighborhood": "Financial District",
    "zip_code": "10048"
  },
  {
    "station_id": "139",
    "slug": "rector-st",
    "name": "Rector St",
    "borough": "Manhattan",
    "routes": [
      "1"
    ],
    "lat": 40.707513,
    "lon": -74.013783,
    "neighborhood": "Financial District",
    "zip_code": "10006"
  },
  {
    "station_id": "140",
    "slug": "south-ferry-loop",
    "name": "South Ferry Loop",
    "borough": "Manhattan",
    "routes": [],
    "lat": 40.701411,
    "lon": -74.013205,
    "neighborhood": "Financial District",
    "zip_code": "10004"
  },
  {
    "station_id": "142",
    "slug": "south-ferry",
    "name": "South Ferry",
    "borough": "Manhattan",
    "routes": [
      "1"
    ],
    "lat": 40.702068,
    "lon": -74.013664,
    "neighborhood": "Financial District",
    "zip_code": "10004"
  },
  {
    "station_id": "224",
    "slug": "135-st",
    "name": "135 St",
    "borough": "Manhattan",
    "routes": [
      "2",
      "3"
    ],
    "lat": 40.814229,
    "lon": -73.94077,
    "neighborhood": "Harlem",
    "zip_code": "10030"
  },
  {
    "station_id": "225",
    "slug": "125-st",
    "name": "125 St",
    "borough": "Manhattan",
    "routes": [
      "2",
      "3"
    ],
    "lat": 40.807754,
    "lon": -73.945495,
    "neighborhood": "Harlem",
    "zip_code": "10027"
  },
  {
    "station_id": "226",
    "slug": "116-st",
    "name": "116 St",
    "borough": "Manhattan",
    "routes": [
      "2",
      "3"
    ],
    "lat": 40.802098,
    "lon": -73.949625,
    "neighborhood": "Harlem",
    "zip_code": "10026"
  },
  {
    "station_id": "228",
    "slug": "park-place",
    "name": "Park Place",
    "borough": "Manhattan",
    "routes": [
      "2",
      "3"
    ],
    "lat": 40.713051,
    "lon": -74.008811,
    "neighborhood": "TriBeCa",
    "zip_code": "10007"
  },
  {
    "station_id": "227",
    "slug": "central-park-north-110-st",
    "name": "Central Park North (110 St)",
    "borough": "Manhattan",
    "routes": [
      "2",
      "3"
    ],
    "lat": 40.799075,
    "lon": -73.951822,
    "neighborhood": "Harlem",
    "zip_code": "10026"
  },
  {
    "station_id": "229",
    "slug": "fulton-st",
    "name": "Fulton St",
    "borough": "Manhattan",
    "routes": [
      "2",
      "3"
    ],
    "lat": 40.709416,
    "lon": -74.006571,
    "neighborhood": "Financial District",
    "zip_code": "10038"
  },
  {
    "station_id": "230",
    "slug": "wall-st",
    "name": "Wall St",
    "borough": "Manhattan",
    "routes": [
      "2",
      "3"
    ],
    "lat": 40.706821,
    "lon": -74.0091,
    "neighborhood": "Financial District",
    "zip_code": "10005"
  },
  {
    "station_id": "301",
    "slug": "harlem-148-st",
    "name": "Harlem-148 St",
    "borough": "Manhattan",
    "routes": [
      "3"
    ],
    "lat": 40.82388,
    "lon": -73.93647,
    "neighborhood": "Harlem",
    "zip_code": "10039"
  },
  {
    "station_id": "302",
    "slug": "145-st",
    "name": "145 St",
    "borough": "Manhattan",
    "routes": [
      "3"
    ],
    "lat": 40.820421,
    "lon": -73.936245,
    "neighborhood": "Harlem",
    "zip_code": "10030"
  },
  {
    "station_id": "418",
    "slug": "fulton-st",
    "name": "Fulton St",
    "borough": "Manhattan",
    "routes": [
      "4",
      "5"
    ],
    "lat": 40.710368,
    "lon": -74.009509,
    "neighborhood": "Financial District",
    "zip_code": "10007"
  },
  {
    "station_id": "419",
    "slug": "wall-st",
    "name": "Wall St",
    "borough": "Manhattan",
    "routes": [
      "4",
      "5"
    ],
    "lat": 40.707557,
    "lon": -74.011862,
    "neighborhood": "Financial District",
    "zip_code": "10006"
  },
  {
    "station_id": "420",
    "slug": "bowling-green",
    "name": "Bowling Green",
    "borough": "Manhattan",
    "routes": [
      "4",
      "5"
    ],
    "lat": 40.704817,
    "lon": -74.014065,
    "neighborhood": "Financial District",
    "zip_code": "10004"
  },
  {
    "station_id": "621",
    "slug": "125-st",
    "name": "125 St",
    "borough": "Manhattan",
    "routes": [
      "6X",
      "4",
      "6",
      "5"
    ],
    "lat": 40.804138,
    "lon": -73.937594,
    "neighborhood": "East Harlem",
    "zip_code": "10035"
  },
  {
    "station_id": "622",
    "slug": "116-st",
    "name": "116 St",
    "borough": "Manhattan",
    "routes": [
      "4",
      "6",
      "6X"
    ],
    "lat": 40.798629,
    "lon": -73.941617,
    "neighborhood": "East Harlem",
    "zip_code": "10029"
  },
  {
    "station_id": "623",
    "slug": "110-st",
    "name": "110 St",
    "borough": "Manhattan",
    "routes": [
      "4",
      "6",
      "6X"
    ],
    "lat": 40.79502,
    "lon": -73.94425,
    "neighborhood": "East Harlem",
    "zip_code": "10029"
  },
  {
    "station_id": "624",
    "slug": "103-st",
    "name": "103 St",
    "borough": "Manhattan",
    "routes": [
      "4",
      "6",
      "6X"
    ],
    "lat": 40.7906,
    "lon": -73.947478,
    "neighborhood": "East Harlem",
    "zip_code": "10029"
  },
  {
    "station_id": "625",
    "slug": "96-st",
    "name": "96 St",
    "borough": "Manhattan",
    "routes": [
      "4",
      "6",
      "6X"
    ],
    "lat": 40.785672,
    "lon": -73.95107,
    "neighborhood": "Carnegie Hill",
    "zip_code": "10128"
  },
  {
    "station_id": "626",
    "slug": "86-st",
    "name": "86 St",
    "borough": "Manhattan",
    "routes": [
      "6X",
      "4",
      "6",
      "5"
    ],
    "lat": 40.779492,
    "lon": -73.955589,
    "neighborhood": "Upper East Side",
    "zip_code": "10028"
  },
  {
    "station_id": "627",
    "slug": "77-st",
    "name": "77 St",
    "borough": "Manhattan",
    "routes": [
      "4",
      "6",
      "6X"
    ],
    "lat": 40.77362,
    "lon": -73.959874,
    "neighborhood": "Lenox Hill",
    "zip_code": "10021"
  },
  {
    "station_id": "628",
    "slug": "68-st-hunter-college",
    "name": "68 St-Hunter College",
    "borough": "Manhattan",
    "routes": [
      "4",
      "6",
      "6X"
    ],
    "lat": 40.768141,
    "lon": -73.96387,
    "neighborhood": "Lenox Hill",
    "zip_code": "10065"
  },
  {
    "station_id": "629",
    "slug": "59-st",
    "name": "59 St",
    "borough": "Manhattan",
    "routes": [
      "6X",
      "4",
      "6",
      "5"
    ],
    "lat": 40.762526,
    "lon": -73.967967,
    "neighborhood": "Midtown East",
    "zip_code": "10022"
  },
  {
    "station_id": "631",
    "slug": "grand-central-42-st",
    "name": "Grand Central-42 St",
    "borough": "Manhattan",
    "routes": [
      "6X",
      "4",
      "6",
      "5"
    ],
    "lat": 40.751776,
    "lon": -73.976848,
    "neighborhood": "Midtown East",
    "zip_code": "10017"
  },
  {
    "station_id": "630",
    "slug": "51-st",
    "name": "51 St",
    "borough": "Manhattan",
    "routes": [
      "4",
      "6",
      "6X"
    ],
    "lat": 40.757107,
    "lon": -73.97192,
    "neighborhood": "Unknown",
    "zip_code": "10022"
  },
  {
    "station_id": "632",
    "slug": "33-st",
    "name": "33 St",
    "borough": "Manhattan",
    "routes": [
      "4",
      "6",
      "6X"
    ],
    "lat": 40.746081,
    "lon": -73.982076,
    "neighborhood": "Koreatown",
    "zip_code": "10016"
  },
  {
    "station_id": "633",
    "slug": "28-st",
    "name": "28 St",
    "borough": "Manhattan",
    "routes": [
      "4",
      "6",
      "6X"
    ],
    "lat": 40.74307,
    "lon": -73.984264,
    "neighborhood": "Rose Hill",
    "zip_code": "10016"
  },
  {
    "station_id": "635",
    "slug": "14-st-union-sq",
    "name": "14 St-Union Sq",
    "borough": "Manhattan",
    "routes": [
      "6X",
      "4",
      "6",
      "5"
    ],
    "lat": 40.734673,
    "lon": -73.989951,
    "neighborhood": "Union Square",
    "zip_code": "10003"
  },
  {
    "station_id": "634",
    "slug": "23-st",
    "name": "23 St",
    "borough": "Manhattan",
    "routes": [
      "4",
      "6",
      "6X"
    ],
    "lat": 40.739864,
    "lon": -73.986599,
    "neighborhood": "Gramercy Park",
    "zip_code": "10010"
  },
  {
    "station_id": "636",
    "slug": "astor-pl",
    "name": "Astor Pl",
    "borough": "Manhattan",
    "routes": [
      "4",
      "6",
      "6X"
    ],
    "lat": 40.730054,
    "lon": -73.99107,
    "neighborhood": "NoHo",
    "zip_code": "10003"
  },
  {
    "station_id": "637",
    "slug": "bleecker-st",
    "name": "Bleecker St",
    "borough": "Manhattan",
    "routes": [
      "4",
      "6",
      "6X"
    ],
    "lat": 40.725915,
    "lon": -73.994659,
    "neighborhood": "NoHo",
    "zip_code": "10012"
  },
  {
    "station_id": "638",
    "slug": "spring-st",
    "name": "Spring St",
    "borough": "Manhattan",
    "routes": [
      "4",
      "6",
      "6X"
    ],
    "lat": 40.722301,
    "lon": -73.997141,
    "neighborhood": "Nolita",
    "zip_code": "10012"
  },
  {
    "station_id": "639",
    "slug": "canal-st",
    "name": "Canal St",
    "borough": "Manhattan",
    "routes": [
      "4",
      "6",
      "6X"
    ],
    "lat": 40.718803,
    "lon": -74.000193,
    "neighborhood": "Chinatown",
    "zip_code": "10013"
  },
  {
    "station_id": "640",
    "slug": "brooklyn-bridge-city-hall",
    "name": "Brooklyn Bridge-City Hall",
    "borough": "Manhattan",
    "routes": [
      "6X",
      "4",
      "6",
      "5"
    ],
    "lat": 40.713065,
    "lon": -74.004131,
    "neighborhood": "Civic Center",
    "zip_code": "10007"
  },
  {
    "station_id": "723",
    "slug": "grand-central-42-st",
    "name": "Grand Central-42 St",
    "borough": "Manhattan",
    "routes": [
      "7",
      "7X"
    ],
    "lat": 40.751431,
    "lon": -73.976041,
    "neighborhood": "Murray Hill",
    "zip_code": "10017"
  },
  {
    "station_id": "724",
    "slug": "5-av",
    "name": "5 Av",
    "borough": "Manhattan",
    "routes": [
      "7",
      "7X"
    ],
    "lat": 40.753821,
    "lon": -73.981963,
    "neighborhood": "Garment District",
    "zip_code": "10018"
  },
  {
    "station_id": "725",
    "slug": "times-sq-42-st",
    "name": "Times Sq-42 St",
    "borough": "Manhattan",
    "routes": [
      "7",
      "7X"
    ],
    "lat": 40.755477,
    "lon": -73.987691,
    "neighborhood": "Theater District",
    "zip_code": "10018"
  },
  {
    "station_id": "726",
    "slug": "34-st-hudson-yards",
    "name": "34 St-Hudson Yards",
    "borough": "Manhattan",
    "routes": [
      "7",
      "7X"
    ],
    "lat": 40.755882,
    "lon": -74.00191,
    "neighborhood": "Hell's Kitchen",
    "zip_code": "10001"
  },
  {
    "station_id": "901",
    "slug": "grand-central-42-st",
    "name": "Grand Central-42 St",
    "borough": "Manhattan",
    "routes": [
      "GS"
    ],
    "lat": 40.752769,
    "lon": -73.979189,
    "neighborhood": "Midtown East",
    "zip_code": "10017"
  },
  {
    "station_id": "902",
    "slug": "times-sq-42-st",
    "name": "Times Sq-42 St",
    "borough": "Manhattan",
    "routes": [
      "GS"
    ],
    "lat": 40.755983,
    "lon": -73.986229,
    "neighborhood": "Theater District",
    "zip_code": "10036"
  },
  {
    "station_id": "A02",
    "slug": "inwood-207-st",
    "name": "Inwood-207 St",
    "borough": "Manhattan",
    "routes": [
      "A"
    ],
    "lat": 40.868072,
    "lon": -73.919899,
    "neighborhood": "Inwood",
    "zip_code": "10034"
  },
  {
    "station_id": "A03",
    "slug": "dyckman-st",
    "name": "Dyckman St",
    "borough": "Manhattan",
    "routes": [
      "A"
    ],
    "lat": 40.865491,
    "lon": -73.927271,
    "neighborhood": "Inwood",
    "zip_code": "10034"
  },
  {
    "station_id": "A05",
    "slug": "190-st",
    "name": "190 St",
    "borough": "Manhattan",
    "routes": [
      "A"
    ],
    "lat": 40.859022,
    "lon": -73.93418,
    "neighborhood": "Washington Heights",
    "zip_code": "10040"
  },
  {
    "station_id": "A06",
    "slug": "181-st",
    "name": "181 St",
    "borough": "Manhattan",
    "routes": [
      "A"
    ],
    "lat": 40.851695,
    "lon": -73.937969,
    "neighborhood": "Washington Heights",
    "zip_code": "10033"
  },
  {
    "station_id": "A07",
    "slug": "175-st",
    "name": "175 St",
    "borough": "Manhattan",
    "routes": [
      "A"
    ],
    "lat": 40.847391,
    "lon": -73.939704,
    "neighborhood": "Washington Heights",
    "zip_code": "10033"
  },
  {
    "station_id": "A09",
    "slug": "168-st",
    "name": "168 St",
    "borough": "Manhattan",
    "routes": [
      "C",
      "A"
    ],
    "lat": 40.840719,
    "lon": -73.939561,
    "neighborhood": "Washington Heights",
    "zip_code": "10032"
  },
  {
    "station_id": "A10",
    "slug": "163-st-amsterdam-av",
    "name": "163 St-Amsterdam Av",
    "borough": "Manhattan",
    "routes": [
      "C",
      "A"
    ],
    "lat": 40.836013,
    "lon": -73.939892,
    "neighborhood": "Washington Heights",
    "zip_code": "10032"
  },
  {
    "station_id": "A11",
    "slug": "155-st",
    "name": "155 St",
    "borough": "Manhattan",
    "routes": [
      "C",
      "A"
    ],
    "lat": 40.830518,
    "lon": -73.941514,
    "neighborhood": "Hamilton Heights",
    "zip_code": "10032"
  },
  {
    "station_id": "A12",
    "slug": "145-st",
    "name": "145 St",
    "borough": "Manhattan",
    "routes": [
      "C",
      "A"
    ],
    "lat": 40.824783,
    "lon": -73.944216,
    "neighborhood": "Hamilton Heights",
    "zip_code": "10031"
  },
  {
    "station_id": "A14",
    "slug": "135-st",
    "name": "135 St",
    "borough": "Manhattan",
    "routes": [
      "C",
      "A",
      "B"
    ],
    "lat": 40.817894,
    "lon": -73.947649,
    "neighborhood": "Hamilton Heights",
    "zip_code": "10031"
  },
  {
    "station_id": "A15",
    "slug": "125-st",
    "name": "125 St",
    "borough": "Manhattan",
    "routes": [
      "D",
      "C",
      "A",
      "B"
    ],
    "lat": 40.811109,
    "lon": -73.952343,
    "neighborhood": "Harlem",
    "zip_code": "10027"
  },
  {
    "station_id": "A16",
    "slug": "116-st",
    "name": "116 St",
    "borough": "Manhattan",
    "routes": [
      "C",
      "A",
      "B"
    ],
    "lat": 40.805085,
    "lon": -73.954882,
    "neighborhood": "Harlem",
    "zip_code": "10026"
  },
  {
    "station_id": "A17",
    "slug": "cathedral-pkwy-110-st",
    "name": "Cathedral Pkwy (110 St)",
    "borough": "Manhattan",
    "routes": [
      "C",
      "A",
      "B"
    ],
    "lat": 40.800603,
    "lon": -73.958161,
    "neighborhood": "Harlem",
    "zip_code": "10026"
  },
  {
    "station_id": "A18",
    "slug": "103-st",
    "name": "103 St",
    "borough": "Manhattan",
    "routes": [
      "C",
      "A",
      "B"
    ],
    "lat": 40.796092,
    "lon": -73.961454,
    "neighborhood": "Central Park",
    "zip_code": "10025"
  },
  {
    "station_id": "A19",
    "slug": "96-st",
    "name": "96 St",
    "borough": "Manhattan",
    "routes": [
      "C",
      "A",
      "B"
    ],
    "lat": 40.791642,
    "lon": -73.964696,
    "neighborhood": "Central Park",
    "zip_code": "10025"
  },
  {
    "station_id": "A20",
    "slug": "86-st",
    "name": "86 St",
    "borough": "Manhattan",
    "routes": [
      "C",
      "A",
      "B"
    ],
    "lat": 40.785868,
    "lon": -73.968916,
    "neighborhood": "Central Park",
    "zip_code": "10024"
  },
  {
    "station_id": "A21",
    "slug": "81-st-museum-of-natural-history",
    "name": "81 St-Museum of Natural History",
    "borough": "Manhattan",
    "routes": [
      "C",
      "A",
      "B"
    ],
    "lat": 40.781433,
    "lon": -73.972143,
    "neighborhood": "Central Park",
    "zip_code": "10024"
  },
  {
    "station_id": "A22",
    "slug": "72-st",
    "name": "72 St",
    "borough": "Manhattan",
    "routes": [
      "C",
      "A",
      "B"
    ],
    "lat": 40.775594,
    "lon": -73.97641,
    "neighborhood": "Central Park",
    "zip_code": "10023"
  },
  {
    "station_id": "A24",
    "slug": "59-st-columbus-circle",
    "name": "59 St-Columbus Circle",
    "borough": "Manhattan",
    "routes": [
      "D",
      "C",
      "A",
      "B"
    ],
    "lat": 40.768296,
    "lon": -73.981736,
    "neighborhood": "Hell's Kitchen",
    "zip_code": "10023"
  },
  {
    "station_id": "A25",
    "slug": "50-st",
    "name": "50 St",
    "borough": "Manhattan",
    "routes": [
      "C",
      "A",
      "E"
    ],
    "lat": 40.762456,
    "lon": -73.985984,
    "neighborhood": "Unknown",
    "zip_code": "10019"
  },
  {
    "station_id": "A27",
    "slug": "42-st-port-authority-bus-terminal",
    "name": "42 St-Port Authority Bus Terminal",
    "borough": "Manhattan",
    "routes": [
      "C",
      "A",
      "E"
    ],
    "lat": 40.757308,
    "lon": -73.989735,
    "neighborhood": "Unknown",
    "zip_code": "10036"
  },
  {
    "station_id": "A28",
    "slug": "34-st-penn-station",
    "name": "34 St-Penn Station",
    "borough": "Manhattan",
    "routes": [
      "C",
      "A",
      "E"
    ],
    "lat": 40.752287,
    "lon": -73.993391,
    "neighborhood": "Garment District",
    "zip_code": "10001"
  },
  {
    "station_id": "A30",
    "slug": "23-st",
    "name": "23 St",
    "borough": "Manhattan",
    "routes": [
      "C",
      "A",
      "E"
    ],
    "lat": 40.745906,
    "lon": -73.998041,
    "neighborhood": "Chelsea",
    "zip_code": "10011"
  },
  {
    "station_id": "A31",
    "slug": "14-st",
    "name": "14 St",
    "borough": "Manhattan",
    "routes": [
      "C",
      "A",
      "E"
    ],
    "lat": 40.740893,
    "lon": -74.00169,
    "neighborhood": "Chelsea",
    "zip_code": "10011"
  },
  {
    "station_id": "A32",
    "slug": "w-4-st-wash-sq",
    "name": "W 4 St-Wash Sq",
    "borough": "Manhattan",
    "routes": [
      "C",
      "A",
      "E"
    ],
    "lat": 40.732338,
    "lon": -74.000495,
    "neighborhood": "West Village",
    "zip_code": "10014"
  },
  {
    "station_id": "A33",
    "slug": "spring-st",
    "name": "Spring St",
    "borough": "Manhattan",
    "routes": [
      "C",
      "A",
      "E"
    ],
    "lat": 40.726227,
    "lon": -74.003739,
    "neighborhood": "Hudson Square",
    "zip_code": "10012"
  },
  {
    "station_id": "A34",
    "slug": "canal-st",
    "name": "Canal St",
    "borough": "Manhattan",
    "routes": [
      "C",
      "A",
      "E"
    ],
    "lat": 40.720824,
    "lon": -74.005229,
    "neighborhood": "TriBeCa",
    "zip_code": "10013"
  },
  {
    "station_id": "A36",
    "slug": "chambers-st",
    "name": "Chambers St",
    "borough": "Manhattan",
    "routes": [
      "C",
      "A"
    ],
    "lat": 40.714111,
    "lon": -74.008585,
    "neighborhood": "TriBeCa",
    "zip_code": "10007"
  },
  {
    "station_id": "A38",
    "slug": "fulton-st",
    "name": "Fulton St",
    "borough": "Manhattan",
    "routes": [
      "C",
      "A"
    ],
    "lat": 40.710197,
    "lon": -74.007691,
    "neighborhood": "Financial District",
    "zip_code": "10038"
  },
  {
    "station_id": "B06",
    "slug": "roosevelt-island",
    "name": "Roosevelt Island",
    "borough": "Manhattan",
    "routes": [
      "F",
      "FX"
    ],
    "lat": 40.759145,
    "lon": -73.95326,
    "neighborhood": "Roosevelt Island",
    "zip_code": "10044"
  },
  {
    "station_id": "B08",
    "slug": "lexington-av-63-st",
    "name": "Lexington Av/63 St",
    "borough": "Manhattan",
    "routes": [
      "N",
      "Q",
      "R",
      "FX",
      "F"
    ],
    "lat": 40.764629,
    "lon": -73.966113,
    "neighborhood": "Lenox Hill",
    "zip_code": "10065"
  },
  {
    "station_id": "B10",
    "slug": "57-st",
    "name": "57 St",
    "borough": "Manhattan",
    "routes": [
      "F",
      "FX"
    ],
    "lat": 40.763972,
    "lon": -73.97745,
    "neighborhood": "Midtown East",
    "zip_code": "10019"
  },
  {
    "station_id": "D12",
    "slug": "155-st",
    "name": "155 St",
    "borough": "Manhattan",
    "routes": [
      "D",
      "B"
    ],
    "lat": 40.830135,
    "lon": -73.938209,
    "neighborhood": "Harlem",
    "zip_code": "10039"
  },
  {
    "station_id": "D13",
    "slug": "145-st",
    "name": "145 St",
    "borough": "Manhattan",
    "routes": [
      "D",
      "B"
    ],
    "lat": 40.824783,
    "lon": -73.944216,
    "neighborhood": "Hamilton Heights",
    "zip_code": "10031"
  },
  {
    "station_id": "D14",
    "slug": "7-av",
    "name": "7 Av",
    "borough": "Manhattan",
    "routes": [
      "D",
      "B",
      "E"
    ],
    "lat": 40.762862,
    "lon": -73.981637,
    "neighborhood": "Theater District",
    "zip_code": "10019"
  },
  {
    "station_id": "D15",
    "slug": "47-50-sts-rockefeller-ctr",
    "name": "47-50 Sts-Rockefeller Ctr",
    "borough": "Manhattan",
    "routes": [
      "D",
      "B",
      "M",
      "FX",
      "F"
    ],
    "lat": 40.758663,
    "lon": -73.981329,
    "neighborhood": "Rockefeller Center",
    "zip_code": "10019"
  },
  {
    "station_id": "D16",
    "slug": "42-st-bryant-pk",
    "name": "42 St-Bryant Pk",
    "borough": "Manhattan",
    "routes": [
      "D",
      "B",
      "M",
      "FX",
      "F"
    ],
    "lat": 40.754222,
    "lon": -73.984569,
    "neighborhood": "Theater District",
    "zip_code": "10036"
  },
  {
    "station_id": "D17",
    "slug": "34-st-herald-sq",
    "name": "34 St-Herald Sq",
    "borough": "Manhattan",
    "routes": [
      "D",
      "B",
      "M",
      "FX",
      "F"
    ],
    "lat": 40.749719,
    "lon": -73.987823,
    "neighborhood": "Koreatown",
    "zip_code": "10001"
  },
  {
    "station_id": "D18",
    "slug": "23-st",
    "name": "23 St",
    "borough": "Manhattan",
    "routes": [
      "F",
      "FX",
      "M"
    ],
    "lat": 40.742878,
    "lon": -73.992821,
    "neighborhood": "The Flatiron District",
    "zip_code": "10010"
  },
  {
    "station_id": "D19",
    "slug": "14-st",
    "name": "14 St",
    "borough": "Manhattan",
    "routes": [
      "F",
      "FX",
      "M"
    ],
    "lat": 40.738228,
    "lon": -73.996209,
    "neighborhood": "Chelsea",
    "zip_code": "10011"
  },
  {
    "station_id": "D20",
    "slug": "w-4-st-wash-sq",
    "name": "W 4 St-Wash Sq",
    "borough": "Manhattan",
    "routes": [
      "D",
      "B",
      "M",
      "FX",
      "F"
    ],
    "lat": 40.732338,
    "lon": -74.000495,
    "neighborhood": "West Village",
    "zip_code": "10014"
  },
  {
    "station_id": "D21",
    "slug": "broadway-lafayette-st",
    "name": "Broadway-Lafayette St",
    "borough": "Manhattan",
    "routes": [
      "D",
      "B",
      "M",
      "FX",
      "F"
    ],
    "lat": 40.725297,
    "lon": -73.996204,
    "neighborhood": "SoHo",
    "zip_code": "10012"
  },
  {
    "station_id": "D22",
    "slug": "grand-st",
    "name": "Grand St",
    "borough": "Manhattan",
    "routes": [
      "D",
      "B"
    ],
    "lat": 40.718267,
    "lon": -73.993753,
    "neighborhood": "The Bowery",
    "zip_code": "10002"
  },
  {
    "station_id": "E01",
    "slug": "world-trade-center",
    "name": "World Trade Center",
    "borough": "Manhattan",
    "routes": [
      "E"
    ],
    "lat": 40.712582,
    "lon": -74.009781,
    "neighborhood": "TriBeCa",
    "zip_code": "10007"
  },
  {
    "station_id": "F11",
    "slug": "lexington-av-53-st",
    "name": "Lexington Av/53 St",
    "borough": "Manhattan",
    "routes": [
      "M",
      "E"
    ],
    "lat": 40.757552,
    "lon": -73.969055,
    "neighborhood": "Midtown East",
    "zip_code": "10022"
  },
  {
    "station_id": "F12",
    "slug": "5-av-53-st",
    "name": "5 Av/53 St",
    "borough": "Manhattan",
    "routes": [
      "M",
      "E"
    ],
    "lat": 40.760167,
    "lon": -73.975224,
    "neighborhood": "Midtown East",
    "zip_code": "10022"
  },
  {
    "station_id": "F14",
    "slug": "2-av",
    "name": "2 Av",
    "borough": "Manhattan",
    "routes": [
      "F",
      "FX"
    ],
    "lat": 40.723402,
    "lon": -73.989938,
    "neighborhood": "The Bowery",
    "zip_code": "10003"
  },
  {
    "station_id": "F15",
    "slug": "delancey-st-essex-st",
    "name": "Delancey St-Essex St",
    "borough": "Manhattan",
    "routes": [
      "F",
      "FX"
    ],
    "lat": 40.718611,
    "lon": -73.988114,
    "neighborhood": "Lower East Side",
    "zip_code": "10002"
  },
  {
    "station_id": "F16",
    "slug": "east-broadway",
    "name": "East Broadway",
    "borough": "Manhattan",
    "routes": [
      "F",
      "FX"
    ],
    "lat": 40.713715,
    "lon": -73.990173,
    "neighborhood": "Two Bridges",
    "zip_code": "10002"
  },
  {
    "station_id": "L01",
    "slug": "8-av",
    "name": "8 Av",
    "borough": "Manhattan",
    "routes": [
      "L"
    ],
    "lat": 40.739777,
    "lon": -74.002578,
    "neighborhood": "West Village",
    "zip_code": "10011"
  },
  {
    "station_id": "L02",
    "slug": "6-av",
    "name": "6 Av",
    "borough": "Manhattan",
    "routes": [
      "L"
    ],
    "lat": 40.737335,
    "lon": -73.996786,
    "neighborhood": "Greenwich Village",
    "zip_code": "10011"
  },
  {
    "station_id": "L03",
    "slug": "14-st-union-sq",
    "name": "14 St-Union Sq",
    "borough": "Manhattan",
    "routes": [
      "L"
    ],
    "lat": 40.734789,
    "lon": -73.99073,
    "neighborhood": "Union Square",
    "zip_code": "10003"
  },
  {
    "station_id": "L05",
    "slug": "3-av",
    "name": "3 Av",
    "borough": "Manhattan",
    "routes": [
      "L"
    ],
    "lat": 40.732849,
    "lon": -73.986122,
    "neighborhood": "East Village",
    "zip_code": "10003"
  },
  {
    "station_id": "L06",
    "slug": "1-av",
    "name": "1 Av",
    "borough": "Manhattan",
    "routes": [
      "L"
    ],
    "lat": 40.730953,
    "lon": -73.981628,
    "neighborhood": "Alphabet City",
    "zip_code": "10009"
  },
  {
    "station_id": "M18",
    "slug": "delancey-st-essex-st",
    "name": "Delancey St-Essex St",
    "borough": "Manhattan",
    "routes": [
      "Z",
      "J",
      "M"
    ],
    "lat": 40.718315,
    "lon": -73.987437,
    "neighborhood": "Lower East Side",
    "zip_code": "10002"
  },
  {
    "station_id": "M19",
    "slug": "bowery",
    "name": "Bowery",
    "borough": "Manhattan",
    "routes": [
      "Z",
      "J"
    ],
    "lat": 40.72028,
    "lon": -73.993915,
    "neighborhood": "The Bowery",
    "zip_code": "10002"
  },
  {
    "station_id": "M20",
    "slug": "canal-st",
    "name": "Canal St",
    "borough": "Manhattan",
    "routes": [
      "Z",
      "J"
    ],
    "lat": 40.718092,
    "lon": -73.999892,
    "neighborhood": "Chinatown",
    "zip_code": "10013"
  },
  {
    "station_id": "M21",
    "slug": "chambers-st",
    "name": "Chambers St",
    "borough": "Manhattan",
    "routes": [
      "Z",
      "J"
    ],
    "lat": 40.713243,
    "lon": -74.003401,
    "neighborhood": "Civic Center",
    "zip_code": "10007"
  },
  {
    "station_id": "M22",
    "slug": "fulton-st",
    "name": "Fulton St",
    "borough": "Manhattan",
    "routes": [
      "Z",
      "J"
    ],
    "lat": 40.710374,
    "lon": -74.007582,
    "neighborhood": "Financial District",
    "zip_code": "10038"
  },
  {
    "station_id": "M23",
    "slug": "broad-st",
    "name": "Broad St",
    "borough": "Manhattan",
    "routes": [
      "Z",
      "J"
    ],
    "lat": 40.706476,
    "lon": -74.011056,
    "neighborhood": "Financial District",
    "zip_code": "10005"
  },
  {
    "station_id": "Q01",
    "slug": "canal-st",
    "name": "Canal St",
    "borough": "Manhattan",
    "routes": [
      "N",
      "Q"
    ],
    "lat": 40.718383,
    "lon": -74.00046,
    "neighborhood": "Chinatown",
    "zip_code": "10013"
  },
  {
    "station_id": "Q03",
    "slug": "72-st",
    "name": "72 St",
    "borough": "Manhattan",
    "routes": [
      "N",
      "Q",
      "R"
    ],
    "lat": 40.768799,
    "lon": -73.958424,
    "neighborhood": "Lenox Hill",
    "zip_code": "10021"
  },
  {
    "station_id": "Q05",
    "slug": "96-st",
    "name": "96 St",
    "borough": "Manhattan",
    "routes": [
      "N",
      "Q",
      "R"
    ],
    "lat": 40.784318,
    "lon": -73.947152,
    "neighborhood": "East Harlem",
    "zip_code": "10029"
  },
  {
    "station_id": "Q04",
    "slug": "86-st",
    "name": "86 St",
    "borough": "Manhattan",
    "routes": [
      "N",
      "Q",
      "R"
    ],
    "lat": 40.777891,
    "lon": -73.951787,
    "neighborhood": "Yorkville",
    "zip_code": "10028"
  },
  {
    "station_id": "R11",
    "slug": "lexington-av-59-st",
    "name": "Lexington Av/59 St",
    "borough": "Manhattan",
    "routes": [
      "N",
      "W",
      "R"
    ],
    "lat": 40.76266,
    "lon": -73.967258,
    "neighborhood": "Midtown East",
    "zip_code": "10065"
  },
  {
    "station_id": "R13",
    "slug": "5-av-59-st",
    "name": "5 Av/59 St",
    "borough": "Manhattan",
    "routes": [
      "N",
      "W",
      "R"
    ],
    "lat": 40.764811,
    "lon": -73.973347,
    "neighborhood": "Central Park",
    "zip_code": "10019"
  },
  {
    "station_id": "R14",
    "slug": "city-hall",
    "name": "57 St-7 Av",
    "borough": "Manhattan",
    "routes": [
      "N",
      "Q",
      "W",
      "R"
    ],
    "lat": 40.764664,
    "lon": -73.980658,
    "neighborhood": "Midtown East",
    "zip_code": "10019"
  },
  {
    "station_id": "R15",
    "slug": "49-st",
    "name": "49 St",
    "borough": "Manhattan",
    "routes": [
      "N",
      "Q",
      "W",
      "R"
    ],
    "lat": 40.759901,
    "lon": -73.984139,
    "neighborhood": "Theater District",
    "zip_code": "10019"
  },
  {
    "station_id": "R17",
    "slug": "34-st-herald-sq",
    "name": "34 St-Herald Sq",
    "borough": "Manhattan",
    "routes": [
      "N",
      "Q",
      "W",
      "R"
    ],
    "lat": 40.749567,
    "lon": -73.98795,
    "neighborhood": "Koreatown",
    "zip_code": "10001"
  },
  {
    "station_id": "R16",
    "slug": "times-sq-42-st",
    "name": "Times Sq-42 St",
    "borough": "Manhattan",
    "routes": [
      "N",
      "Q",
      "W",
      "R"
    ],
    "lat": 40.754672,
    "lon": -73.986754,
    "neighborhood": "Theater District",
    "zip_code": "10018"
  },
  {
    "station_id": "R18",
    "slug": "28-st",
    "name": "28 St",
    "borough": "Manhattan",
    "routes": [
      "N",
      "Q",
      "W",
      "R"
    ],
    "lat": 40.745494,
    "lon": -73.988691,
    "neighborhood": "NoMad",
    "zip_code": "10001"
  },
  {
    "station_id": "R19",
    "slug": "23-st",
    "name": "23 St",
    "borough": "Manhattan",
    "routes": [
      "N",
      "Q",
      "W",
      "R"
    ],
    "lat": 40.741303,
    "lon": -73.989344,
    "neighborhood": "The Flatiron District",
    "zip_code": "10010"
  },
  {
    "station_id": "R20",
    "slug": "14-st-union-sq",
    "name": "14 St-Union Sq",
    "borough": "Manhattan",
    "routes": [
      "N",
      "Q",
      "W",
      "R"
    ],
    "lat": 40.735736,
    "lon": -73.990568,
    "neighborhood": "Union Square",
    "zip_code": "10003"
  },
  {
    "station_id": "R21",
    "slug": "8-st-nyu",
    "name": "8 St-NYU",
    "borough": "Manhattan",
    "routes": [
      "N",
      "Q",
      "W",
      "R"
    ],
    "lat": 40.730328,
    "lon": -73.992629,
    "neighborhood": "NoHo",
    "zip_code": "10003"
  },
  {
    "station_id": "R22",
    "slug": "prince-st",
    "name": "Prince St",
    "borough": "Manhattan",
    "routes": [
      "N",
      "Q",
      "W",
      "R"
    ],
    "lat": 40.724329,
    "lon": -73.997702,
    "neighborhood": "SoHo",
    "zip_code": "10012"
  },
  {
    "station_id": "R23",
    "slug": "canal-st",
    "name": "Canal St",
    "borough": "Manhattan",
    "routes": [
      "N",
      "W",
      "R"
    ],
    "lat": 40.719527,
    "lon": -74.001775,
    "neighborhood": "SoHo",
    "zip_code": "10013"
  },
  {
    "station_id": "R24",
    "slug": "city-hall",
    "name": "City Hall",
    "borough": "Manhattan",
    "routes": [
      "N",
      "W",
      "R"
    ],
    "lat": 40.713282,
    "lon": -74.006978,
    "neighborhood": "Civic Center",
    "zip_code": "10007"
  },
  {
    "station_id": "R25",
    "slug": "cortlandt-st",
    "name": "Cortlandt St",
    "borough": "Manhattan",
    "routes": [
      "N",
      "W",
      "R"
    ],
    "lat": 40.710668,
    "lon": -74.011029,
    "neighborhood": "Financial District",
    "zip_code": "10007"
  },
  {
    "station_id": "R26",
    "slug": "rector-st",
    "name": "Rector St",
    "borough": "Manhattan",
    "routes": [
      "N",
      "W",
      "R"
    ],
    "lat": 40.70722,
    "lon": -74.013342,
    "neighborhood": "Financial District",
    "zip_code": "10006"
  },
  {
    "station_id": "R27",
    "slug": "whitehall-st-south-ferry",
    "name": "Whitehall St-South Ferry",
    "borough": "Manhattan",
    "routes": [
      "N",
      "W",
      "R"
    ],
    "lat": 40.703087,
    "lon": -74.012994,
    "neighborhood": "Financial District",
    "zip_code": "10004"
  }
]