[
  {
    "station_id": "701",
    "slug": "flushing-main-st",
    "name": "Flushing-Main St",
    "borough": "Queens",
    "routes": [
      "7",
      "7X"
    ],
    "lat": 40.7596,
    "lon": -73.83003,
    "neighborhood": "Flushing",
    "zip_code": "11354"
  },
  {
    "station_id": "702",
    "slug": "mets-willets-point",
    "name": "Mets-Willets Point",
    "borough": "Queens",
    "routes": [
      "7",
      "7X"
    ],
    "lat": 40.754622,
    "lon": -73.845625,
    "neighborhood": "Corona",
    "zip_code": "11368"
  },
  {
    "station_id": "705",
    "slug": "111-st",
    "name": "111 St",
    "borough": "Queens",
    "routes": [
      "7"
    ],
    "lat": 40.75173,
    "lon": -73.855334,
    "neighborhood": "North Corona",
    "zip_code": "11368"
  },
  {
    "station_id": "706",
    "slug": "103-st-corona-plaza",
    "name": "103 St-Corona Plaza",
    "borough": "Queens",
    "routes": [
      "7"
    ],
    "lat": 40.749865,
    "lon": -73.8627,
    "neighborhood": "Corona",
    "zip_code": "11368"
  },
  {
    "station_id": "707",
    "slug": "junction-blvd",
    "name": "Junction Blvd",
    "borough": "Queens",
    "routes": [
      "7",
      "7X"
    ],
    "lat": 40.749145,
    "lon": -73.869527,
    "neighborhood": "Jackson Heights",
    "zip_code": "11373"
  },
  {
    "station_id": "708",
    "slug": "90-st-elmhurst-av",
    "name": "90 St-Elmhurst Av",
    "borough": "Queens",
    "routes": [
      "7"
    ],
    "lat": 40.748408,
    "lon": -73.876613,
    "neighborhood": "Jackson Heights",
    "zip_code": "11372"
  },
  {
    "station_id": "709",
    "slug": "82-st-jackson-hts",
    "name": "82 St-Jackson Hts",
    "borough": "Queens",
    "routes": [
      "7"
    ],
    "lat": 40.747659,
    "lon": -73.883697,
    "neighborhood": "Elmhurst",
    "zip_code": "11372"
  },
  {
    "station_id": "710",
    "slug": "74-st-broadway",
    "name": "74 St-Broadway",
    "borough": "Queens",
    "routes": [
      "7",
      "7X"
    ],
    "lat": 40.746848,
    "lon": -73.891394,
    "neighborhood": "Elmhurst",
    "zip_code": "11373"
  },
  {
    "station_id": "711",
    "slug": "69-st",
    "name": "69 St",
    "borough": "Queens",
    "routes": [
      "7",
      "7X"
    ],
    "lat": 40.746325,
    "lon": -73.896403,
    "neighborhood": "Woodside",
    "zip_code": "11377"
  },
  {
    "station_id": "712",
    "slug": "61-st-woodside",
    "name": "61 St-Woodside",
    "borough": "Queens",
    "routes": [
      "7",
      "7X"
    ],
    "lat": 40.74563,
    "lon": -73.902984,
    "neighborhood": "Woodside",
    "zip_code": "11377"
  },
  {
    "station_id": "713",
    "slug": "52-st",
    "name": "52 St",
    "borough": "Queens",
    "routes": [
      "7",
      "7X"
    ],
    "lat": 40.744149,
    "lon": -73.912549,
    "neighborhood": "Woodside",
    "zip_code": "11377"
  },
  {
    "station_id": "714",
    "slug": "46-st-bliss-st",
    "name": "46 St-Bliss St",
    "borough": "Queens",
    "routes": [
      "7",
      "7X"
    ],
    "lat": 40.743132,
    "lon": -73.918435,
    "neighborhood": "Sunnyside",
    "zip_code": "11104"
  },
  {
    "station_id": "715",
    "slug": "40-st-lowery-st",
    "name": "40 St-Lowery St",
    "borough": "Queens",
    "routes": [
      "7",
      "7X"
    ],
    "lat": 40.743781,
    "lon": -73.924016,
    "neighborhood": "Sunnyside",
    "zip_code": "11104"
  },
  {
    "station_id": "716",
    "slug": "33-st-rawson-st",
    "name": "33 St-Rawson St",
    "borough": "Queens",
    "routes": [
      "7",
      "7X"
    ],
    "lat": 40.744587,
    "lon": -73.930997,
    "neighborhood": "Sunnyside",
    "zip_code": "11101"
  },
  {
    "station_id": "718",
    "slug": "queensboro-plaza",
    "name": "Queensboro Plaza",
    "borough": "Queens",
    "routes": [
      "7",
      "7X"
    ],
    "lat": 40.750582,
    "lon": -73.940202,
    "neighborhood": "Long Island City",
    "zip_code": "11101"
  },
  {
    "station_id": "719",
    "slug": "court-sq",
    "name": "Court Sq",
    "borough": "Queens",
    "routes": [
      "7",
      "7X"
    ],
    "lat": 40.747023,
    "lon": -73.945264,
    "neighborhood": "Hunters Point",
    "zip_code": "11101"
  },
  {
    "station_id": "720",
    "slug": "hunters-point-av",
    "name": "Hunters Point Av",
    "borough": "Queens",
    "routes": [
      "7",
      "7X"
    ],
    "lat": 40.742216,
    "lon": -73.948916,
    "neighborhood": "Hunters Point",
    "zip_code": "11101"
  },
  {
    "station_id": "721",
    "slug": "vernon-blvd-jackson-av",
    "name": "Vernon Blvd-Jackson Av",
    "borough": "Queens",
    "routes": [
      "7",
      "7X"
    ],
    "lat": 40.742626,
    "lon": -73.953581,
    "neighborhood": "Hunters Point",
    "zip_code": "11101"
  },
  {
    "station_id": "A59",
    "slug": "80-st",
    "name": "80 St",
    "borough": "Queens",
    "routes": [
      "A"
    ],
    "lat": 40.679371,
    "lon": -73.858992,
    "neighborhood": "Ozone Park",
    "zip_code": "11417"
  },
  {
    "station_id": "A60",
    "slug": "88-st",
    "name": "88 St",
    "borough": "Queens",
    "routes": [
      "A"
    ],
    "lat": 40.679843,
    "lon": -73.85147,
    "neighborhood": "Ozone Park",
    "zip_code": "11417"
  },
  {
    "station_id": "A61",
    "slug": "rockaway-blvd",
    "name": "Rockaway Blvd",
    "borough": "Queens",
    "routes": [
      "A"
    ],
    "lat": 40.680429,
    "lon": -73.843853,
    "neighborhood": "Ozone Park",
    "zip_code": "11417"
  },
  {
    "station_id": "A63",
    "slug": "104-st",
    "name": "104 St",
    "borough": "Queens",
    "routes": [
      "A"
    ],
    "lat": 40.681711,
    "lon": -73.837683,
    "neighborhood": "Ozone Park",
    "zip_code": "11417"
  },
  {
    "station_id": "A64",
    "slug": "111-st",
    "name": "111 St",
    "borough": "Queens",
    "routes": [
      "A"
    ],
    "lat": 40.684331,
    "lon": -73.832163,
    "neighborhood": "Richmond Hill",
    "zip_code": "11419"
  },
  {
    "station_id": "A65",
    "slug": "ozone-park-lefferts-blvd",
    "name": "Ozone Park-Lefferts Blvd",
    "borough": "Queens",
    "routes": [
      "A"
    ],
    "lat": 40.685951,
    "lon": -73.825798,
    "neighborhood": "Richmond Hill",
    "zip_code": "11419"
  },
  {
    "station_id": "B04",
    "slug": "21-st-queensbridge",
    "name": "21 St-Queensbridge",
    "borough": "Queens",
    "routes": [
      "F",
      "FX"
    ],
    "lat": 40.754203,
    "lon": -73.942836,
    "neighborhood": "Long Island City",
    "zip_code": "11101"
  },
  {
    "station_id": "F01",
    "slug": "jamaica-179-st",
    "name": "Jamaica-179 St",
    "borough": "Queens",
    "routes": [
      "F",
      "FX",
      "E"
    ],
    "lat": 40.712646,
    "lon": -73.783817,
    "neighborhood": "Jamaica",
    "zip_code": "11432"
  },
  {
    "station_id": "F02",
    "slug": "169-st",
    "name": "169 St",
    "borough": "Queens",
    "routes": [
      "F",
      "FX",
      "E"
    ],
    "lat": 40.71047,
    "lon": -73.793604,
    "neighborhood": "Jamaica",
    "zip_code": "11432"
  },
  {
    "station_id": "F03",
    "slug": "parsons-blvd",
    "name": "Parsons Blvd",
    "borough": "Queens",
    "routes": [
      "F",
      "FX",
      "E"
    ],
    "lat": 40.707564,
    "lon": -73.803326,
    "neighborhood": "Briarwood",
    "zip_code": "11432"
  },
  {
    "station_id": "F04",
    "slug": "sutphin-blvd",
    "name": "Sutphin Blvd",
    "borough": "Queens",
    "routes": [
      "F",
      "FX",
      "E"
    ],
    "lat": 40.70546,
    "lon": -73.810708,
    "neighborhood": "Jamaica",
    "zip_code": "11435"
  },
  {
    "station_id": "F05",
    "slug": "briarwood",
    "name": "Briarwood",
    "borough": "Queens",
    "routes": [
      "F",
      "FX",
      "E"
    ],
    "lat": 40.709179,
    "lon": -73.820574,
    "neighborhood": "Kew Gardens",
    "zip_code": "11435"
  },
  {
    "station_id": "F06",
    "slug": "kew-gardens-union-tpke",
    "name": "Kew Gardens-Union Tpke",
    "borough": "Queens",
    "routes": [
      "F",
      "FX",
      "E"
    ],
    "lat": 40.714441,
    "lon": -73.831008,
    "neighborhood": "Forest Hills",
    "zip_code": "11375"
  },
  {
    "station_id": "F07",
    "slug": "75-av",
    "name": "75 Av",
    "borough": "Queens",
    "routes": [
      "F",
      "FX",
      "E"
    ],
    "lat": 40.718331,
    "lon": -73.837324,
    "neighborhood": "Forest Hills",
    "zip_code": "11375"
  },
  {
    "station_id": "F09",
    "slug": "court-sq-23-st",
    "name": "Court Sq-23 St",
    "borough": "Queens",
    "routes": [
      "M",
      "E"
    ],
    "lat": 40.747846,
    "lon": -73.946,
    "neighborhood": "Hunters Point",
    "zip_code": "11101"
  },
  {
    "station_id": "G05",
    "slug": "jamaica-center-parsons-archer",
    "name": "Jamaica Center-Parsons/Archer",
    "borough": "Queens",
    "routes": [
      "Z",
      "J",
      "E"
    ],
    "lat": 40.702147,
    "lon": -73.801109,
    "neighborhood": "Jamaica",
    "zip_code": "11433"
  },
  {
    "station_id": "G06",
    "slug": "sutphin-blvd-archer-av-jfk-airport",
    "name": "Sutphin Blvd-Archer Av-JFK Airport",
    "borough": "Queens",
    "routes": [
      "Z",
      "J",
      "E"
    ],
    "lat": 40.700486,
    "lon": -73.807969,
    "neighborhood": "Jamaica",
    "zip_code": "11435"
  },
  {
    "station_id": "G07",
    "slug": "jamaica-van-wyck",
    "name": "Jamaica-Van Wyck",
    "borough": "Queens",
    "routes": [
      "E"
    ],
    "lat": 40.702566,
    "lon": -73.816859,
    "neighborhood": "Richmond Hill",
    "zip_code": "11418"
  },
  {
    "station_id": "G08",
    "slug": "forest-hills-71-av",
    "name": "Forest Hills-71 Av",
    "borough": "Queens",
    "routes": [
      "R",
      "E",
      "M",
      "FX",
      "F"
    ],
    "lat": 40.721691,
    "lon": -73.844521,
    "neighborhood": "Forest Hills",
    "zip_code": "11375"
  },
  {
    "station_id": "G09",
    "slug": "67-av",
    "name": "67 Av",
    "borough": "Queens",
    "routes": [
      "R",
      "F",
      "M",
      "E"
    ],
    "lat": 40.726523,
    "lon": -73.852719,
    "neighborhood": "Rego Park",
    "zip_code": "11375"
  },
  {
    "station_id": "G10",
    "slug": "63-dr-rego-park",
    "name": "63 Dr-Rego Park",
    "borough": "Queens",
    "routes": [
      "R",
      "F",
      "M",
      "E"
    ],
    "lat": 40.729846,
    "lon": -73.861604,
    "neighborhood": "Rego Park",
    "zip_code": "11374"
  },
  {
    "station_id": "G12",
    "slug": "grand-av-newtown",
    "name": "Grand Av-Newtown",
    "borough": "Queens",
    "routes": [
      "R",
      "F",
      "M",
      "E"
    ],
    "lat": 40.737015,
    "lon": -73.877223,
    "neighborhood": "Elmhurst",
    "zip_code": "11373"
  },
  {
    "station_id": "G11",
    "slug": "woodhaven-blvd",
    "name": "Woodhaven Blvd",
    "borough": "Queens",
    "routes": [
      "R",
      "F",
      "M",
      "E"
    ],
    "lat": 40.733106,
    "lon": -73.869229,
    "neighborhood": "Elmhurst",
    "zip_code": "11373"
  },
  {
    "station_id": "G13",
    "slug": "elmhurst-av",
    "name": "Elmhurst Av",
    "borough": "Queens",
    "routes": [
      "R",
      "F",
      "M",
      "E"
    ],
    "lat": 40.742454,
    "lon": -73.882017,
    "neighborhood": "Elmhurst",
    "zip_code": "11373"
  },
  {
    "station_id": "G14",
    "slug": "jackson-hts-roosevelt-av",
    "name": "Jackson Hts-Roosevelt Av",
    "borough": "Queens",
    "routes": [
      "R",
      "E",
      "M",
      "FX",
      "F"
    ],
    "lat": 40.746644,
    "lon": -73.891338,
    "neighborhood": "Elmhurst",
    "zip_code": "11373"
  },
  {
    "station_id": "G15",
    "slug": "65-st",
    "name": "65 St",
    "borough": "Queens",
    "routes": [
      "R",
      "F",
      "M",
      "E"
    ],
    "lat": 40.749669,
    "lon": -73.898453,
    "neighborhood": "Woodside",
    "zip_code": "11377"
  },
  {
    "station_id": "G16",
    "slug": "northern-blvd",
    "name": "Northern Blvd",
    "borough": "Queens",
    "routes": [
      "R",
      "F",
      "M",
      "E"
    ],
    "lat": 40.752885,
    "lon": -73.906006,
    "neighborhood": "Woodside",
    "zip_code": "11377"
  },
  {
    "station_id": "G18",
    "slug": "46-st",
    "name": "46 St",
    "borough": "Queens",
    "routes": [
      "R",
      "F",
      "M",
      "E"
    ],
    "lat": 40.756312,
    "lon": -73.913333,
    "neighborhood": "Astoria",
    "zip_code": "11103"
  },
  {
    "station_id": "G19",
    "slug": "steinway-st",
    "name": "Steinway St",
    "borough": "Queens",
    "routes": [
      "R",
      "F",
      "M",
      "E"
    ],
    "lat": 40.756879,
    "lon": -73.92074,
    "neighborhood": "Astoria",
    "zip_code": "11103"
  },
  {
    "station_id": "G20",
    "slug": "36-st",
    "name": "36 St",
    "borough": "Queens",
    "routes": [
      "R",
      "F",
      "M",
      "E"
    ],
    "lat": 40.752039,
    "lon": -73.928781,
    "neighborhood": "Astoria",
    "zip_code": "11101"
  },
  {
    "station_id": "G21",
    "slug": "queens-plaza",
    "name": "Queens Plaza",
    "borough": "Queens",
    "routes": [
      "R",
      "M",
      "E"
    ],
    "lat": 40.748973,
    "lon": -73.937243,
    "neighborhood": "Long Island City",
    "zip_code": "11101"
  },
  {
    "station_id": "G22",
    "slug": "court-sq",
    "name": "Court Sq",
    "borough": "Queens",
    "routes": [
      "G"
    ],
    "lat": 40.746554,
    "lon": -73.943832,
    "neighborhood": "Long Island City",
    "zip_code": "11101"
  },
  {
    "station_id": "G24",
    "slug": "21-st",
    "name": "21 St",
    "borough": "Queens",
    "routes": [
      "G"
    ],
    "lat": 40.744065,
    "lon": -73.949724,
    "neighborhood": "Hunters Point",
    "zip_code": "11101"
  },
  {
    "station_id": "H01",
    "slug": "aqueduct-racetrack",
    "name": "Aqueduct Racetrack",
    "borough": "Queens",
    "routes": [
      "A"
    ],
    "lat": 40.672369,
    "lon": -73.835254,
    "neighborhood": "Ozone Park",
    "zip_code": "11420"
  },
  {
    "station_id": "H02",
    "slug": "aqueduct-n-conduit-av",
    "name": "Aqueduct-N Conduit Av",
    "borough": "Queens",
    "routes": [
      "A"
    ],
    "lat": 40.668234,
    "lon": -73.834058,
    "neighborhood": "Ozone Park",
    "zip_code": "11420"
  },
  {
    "station_id": "H03",
    "slug": "howard-beach-jfk-airport",
    "name": "Howard Beach-JFK Airport",
    "borough": "Queens",
    "routes": [
      "A"
    ],
    "lat": 40.660476,
    "lon": -73.830301,
    "neighborhood": "Unknown",
    "zip_code": "11414"
  },
  {
    "station_id": "H04",
    "slug": "broad-channel",
    "name": "Broad Channel",
    "borough": "Queens",
    "routes": [
      "A",
      "H"
    ],
    "lat": 40.608382,
    "lon": -73.815925,
    "neighborhood": "Broad Channel",
    "zip_code": "11693"
  },
  {
    "station_id": "H06",
    "slug": "beach-67-st",
    "name": "Beach 67 St",
    "borough": "Queens",
    "routes": [
      "A"
    ],
    "lat": 40.590927,
    "lon": -73.796924,
    "neighborhood": "Arverne",
    "zip_code": "11692"
  },
  {
    "station_id": "H07",
    "slug": "beach-60-st",
    "name": "Beach 60 St",
    "borough": "Queens",
    "routes": [
      "A"
    ],
    "lat": 40.592374,
    "lon": -73.788522,
    "neighborhood": "Arverne",
    "zip_code": "11692"
  },
  {
    "station_id": "H08",
    "slug": "beach-44-st",
    "name": "Beach 44 St",
    "borough": "Queens",
    "routes": [
      "A"
    ],
    "lat": 40.592943,
    "lon": -73.776013,
    "neighborhood": "Edgemere",
    "zip_code": "11691"
  },
  {
    "station_id": "H09",
    "slug": "beach-36-st",
    "name": "Beach 36 St",
    "borough": "Queens",
    "routes": [
      "A"
    ],
    "lat": 40.595398,
    "lon": -73.768175,
    "neighborhood": "Edgemere",
    "zip_code": "11691"
  },
  {
    "station_id": "H10",
    "slug": "beach-25-st",
    "name": "Beach 25 St",
    "borough": "Queens",
    "routes": [
      "A"
    ],
    "lat": 40.600066,
    "lon": -73.761353,
    "neighborhood": "Far Rockaway",
    "zip_code": "11691"
  },
  {
    "station_id": "H11",
    "slug": "far-rockaway-mott-av",
    "name": "Far Rockaway-Mott Av",
    "borough": "Queens",
    "routes": [
      "A"
    ],
    "lat": 40.603995,
    "lon": -73.755405,
    "neighborhood": "Far Rockaway",
    "zip_code": "11691"
  },
  {
    "station_id": "H12",
    "slug": "beach-90-st",
    "name": "Beach 90 St",
    "borough": "Queens",
    "routes": [
      "A",
      "H"
    ],
    "lat": 40.588034,
    "lon": -73.813641,
    "neighborhood": "Seaside",
    "zip_code": "11693"
  },
  {
    "station_id": "H13",
    "slug": "beach-98-st",
    "name": "Beach 98 St",
    "borough": "Queens",
    "routes": [
      "A",
      "H"
    ],
    "lat": 40.585307,
    "lon": -73.820558,
    "neighborhood": "Rockaway Beach",
    "zip_code": "11694"
  },
  {
    "station_id": "H14",
    "slug": "beach-105-st",
    "name": "Beach 105 St",
    "borough": "Queens",
    "routes": [
      "A",
      "H"
    ],
    "lat": 40.583209,
    "lon": -73.827559,
    "neighborhood": "Rockaway Beach",
    "zip_code": "11694"
  },
  {
    "station_id": "H15",
    "slug": "rockaway-park-beach-116-st",
    "name": "Rockaway Park-Beach 116 St",
    "borough": "Queens",
    "routes": [
      "A",
      "H"
    ],
    "lat": 40.580903,
    "lon": -73.835592,
    "neighborhood": "Rockaway Park",
    "zip_code": "11694"
  },
  {
    "station_id": "J12",
    "slug": "121-st",
    "name": "121 St",
    "borough": "Queens",
    "routes": [
      "Z",
      "J"
    ],
    "lat": 40.700492,
    "lon": -73.828294,
    "neighborhood": "Richmond Hill",
    "zip_code": "11418"
  },
  {
    "station_id": "H19",
    "slug": "broad-channel",
    "name": "Broad Channel",
    "borough": "Queens",
    "routes": [],
    "lat": 40.609014,
    "lon": -73.816024,
    "neighborhood": "Broad Channel",
    "zip_code": "11693"
  },
  {
    "station_id": "J13",
    "slug": "111-st",
    "name": "111 St",
    "borough": "Queens",
    "routes": [
      "Z",
      "J"
    ],
    "lat": 40.697418,
    "lon": -73.836345,
    "neighborhood": "Richmond Hill",
    "zip_code": "11418"
  },
  {
    "station_id": "J14",
    "slug": "104-st",
    "name": "104 St",
    "borough": "Queens",
    "routes": [
      "Z",
      "J"
    ],
    "lat": 40.695178,
    "lon": -73.84433,
    "neighborhood": "Richmond Hill",
    "zip_code": "11418"
  },
  {
    "station_id": "J15",
    "slug": "woodhaven-blvd",
    "name": "Woodhaven Blvd",
    "borough": "Queens",
    "routes": [
      "Z",
      "J"
    ],
    "lat": 40.693879,
    "lon": -73.851576,
    "neighborhood": "Woodhaven",
    "zip_code": "11421"
  },
  {
    "station_id": "J16",
    "slug": "85-st-forest-pkwy",
    "name": "85 St-Forest Pkwy",
    "borough": "Queens",
    "routes": [
      "Z",
      "J"
    ],
    "lat": 40.692435,
    "lon": -73.86001,
    "neighborhood": "Woodhaven",
    "zip_code": "11421"
  },
  {
    "station_id": "J17",
    "slug": "75-st-elderts-ln",
    "name": "75 St-Elderts Ln",
    "borough": "Queens",
    "routes": [
      "Z",
      "J"
    ],
    "lat": 40.691324,
    "lon": -73.867139,
    "neighborhood": "Woodhaven",
    "zip_code": "11421"
  },
  {
    "station_id": "L17",
    "slug": "myrtle-wyckoff-avs",
    "name": "Myrtle-Wyckoff Avs",
    "borough": "Queens",
    "routes": [
      "L"
    ],
    "lat": 40.699814,
    "lon": -73.911586,
    "neighborhood": "Bushwick",
    "zip_code": "11385"
  },
  {
    "station_id": "L19",
    "slug": "halsey-st",
    "name": "Halsey St",
    "borough": "Queens",
    "routes": [
      "L"
    ],
    "lat": 40.695602,
    "lon": -73.904084,
    "neighborhood": "Ridgewood",
    "zip_code": "11385"
  },
  {
    "station_id": "M01",
    "slug": "middle-village-metropolitan-av",
    "name": "Middle Village-Metropolitan Av",
    "borough": "Queens",
    "routes": [
      "M"
    ],
    "lat": 40.711396,
    "lon": -73.889601,
    "neighborhood": "Middle Village",
    "zip_code": "11379"
  },
  {
    "station_id": "M05",
    "slug": "forest-av",
    "name": "Forest Av",
    "borough": "Queens",
    "routes": [
      "M"
    ],
    "lat": 40.704423,
    "lon": -73.903077,
    "neighborhood": "Ridgewood",
    "zip_code": "11385"
  },
  {
    "station_id": "M04",
    "slug": "fresh-pond-rd",
    "name": "Fresh Pond Rd",
    "borough": "Queens",
    "routes": [
      "M"
    ],
    "lat": 40.706186,
    "lon": -73.895877,
    "neighborhood": "Ridgewood",
    "zip_code": "11385"
  },
  {
    "station_id": "M06",
    "slug": "seneca-av",
    "name": "Seneca Av",
    "borough": "Queens",
    "routes": [
      "M"
    ],
    "lat": 40.702762,
    "lon": -73.90774,
    "neighborhood": "Ridgewood",
    "zip_code": "11385"
  },
  {
    "station_id": "R01",
    "slug": "astoria-ditmars-blvd",
    "name": "Astoria-Ditmars Blvd",
    "borough": "Queens",
    "routes": [
      "N",
      "W"
    ],
    "lat": 40.775036,
    "lon": -73.912034,
    "neighborhood": "Steinway",
    "zip_code": "11105"
  },
  {
    "station_id": "R03",
    "slug": "astoria-blvd",
    "name": "Astoria Blvd",
    "borough": "Queens",
    "routes": [
      "N",
      "W"
    ],
    "lat": 40.770258,
    "lon": -73.917843,
    "neighborhood": "Astoria",
    "zip_code": "11103"
  },
  {
    "station_id": "R04",
    "slug": "30-av",
    "name": "30 Av",
    "borough": "Queens",
    "routes": [
      "N",
      "W"
    ],
    "lat": 40.766779,
    "lon": -73.921479,
    "neighborhood": "Astoria",
    "zip_code": "11102"
  },
  {
    "station_id": "R05",
    "slug": "broadway",
    "name": "Broadway",
    "borough": "Queens",
    "routes": [
      "N",
      "W"
    ],
    "lat": 40.76182,
    "lon": -73.925508,
    "neighborhood": "Astoria",
    "zip_code": "11106"
  },
  {
    "station_id": "R06",
    "slug": "36-av",
    "name": "36 Av",
    "borough": "Queens",
    "routes": [
      "N",
      "W"
    ],
    "lat": 40.756804,
    "lon": -73.929575,
    "neighborhood": "Astoria",
    "zip_code": "11106"
  },
  {
    "station_id": "R08",
    "slug": "39-av-dutch-kills",
    "name": "39 Av-Dutch Kills",
    "borough": "Queens",
    "routes": [
      "N",
      "W"
    ],
    "lat": 40.752882,
    "lon": -73.932755,
    "neighborhood": "Long Island City",
    "zip_code": "11101"
  },
  {
    "station_id": "R09",
    "slug": "queensboro-plaza",
    "name": "Queensboro Plaza",
    "borough": "Queens",
    "routes": [
      "N",
      "W"
    ],
    "lat": 40.750582,
    "lon": -73.940202,
    "neighborhood": "Long Island City",
    "zip_code": "11101"
  }
]